{
  "norad_id": 57222,
  "name": "STARLINK-5870",
  "history": [
    {
      "epoch": "2026-03-28T21:00:19.316448Z",
      "apogee_km": 486.71331119316346,
      "perigee_km": 484.3244843944958,
      "latitude_deg": 5.617960845477739e-06,
      "longitude_deg": 140.664425158967,
      "height_km": 485.29014450802043,
      "semi_major_axis_km": 6863.655897793829,
      "eccentricity": 0.00017402,
      "inclination_deg": 43.0025,
      "raan_deg": 282.0343,
      "arg_perigee_deg": 270.2921,
      "mean_anomaly_deg": 89.7731,
      "mean_motion_rev_day": 15.26755553
    }
  ]
}